{
  "norad_id": 62041,
  "name": "STARLINK-32456",
  "history": [
    {
      "epoch": "2026-04-15T04:21:05.599584Z",
      "apogee_km": 483.95874692569123,
      "perigee_km": 482.0615025227635,
      "latitude_deg": -1.843362830141211e-05,
      "longitude_deg": 141.86667994813587,
      "height_km": 482.7588804784868,
      "semi_major_axis_km": 6861.147124724227,
      "eccentricity": 0.00013826,
      "inclination_deg": 43.0024,
      "raan_deg": 50.4871,
      "arg_perigee_deg": 271.7037,
      "mean_anomaly_deg": 88.3656,
      "mean_motion_rev_day": 15.27593015
    },
    {
      "epoch": "2026-04-16T03:53:26.542464Z",
      "apogee_km": 483.9119833446366,
      "perigee_km": 482.10036710065197,
      "latitude_deg": -1.8135470348083574e-06,
      "longitude_deg": 142.27461904424504,
      "height_km": 482.5844439260155,
      "semi_major_axis_km": 6861.1431752226445,
      "eccentricity": 0.00013202,
      "inclination_deg": 43.0038,
      "raan_deg": 44.949,
      "arg_perigee_deg": 282.6774,
      "mean_anomaly_deg": 77.393,
      "mean_motion_rev_day": 15.27594334
    },
    {
      "epoch": "2026-04-17T20:41:29.846400Z",
      "apogee_km": 483.92083926194573,
      "perigee_km": 482.1448940536602,
      "latitude_deg": -8.953300533545565e-06,
      "longitude_deg": -121.01818653842456,
      "height_km": 483.49782540091246,
      "semi_major_axis_km": 6861.169866657803,
      "eccentricity": 0.00012942,
      "inclination_deg": 43.0033,
      "raan_deg": 35.3456,
      "arg_perigee_deg": 219.163,
      "mean_anomaly_deg": 140.9128,
      "mean_motion_rev_day": 15.2758542
    },
    {
      "epoch": "2026-04-18T04:32:17.696544Z",
      "apogee_km": 484.2569867372222,
      "perigee_km": 482.0307755425283,
      "latitude_deg": 1.8051168998657713e-05,
      "longitude_deg": 119.1171173740233,
      "height_km": 483.08180206786665,
      "semi_major_axis_km": 6861.280881139875,
      "eccentricity": 0.00016223,
      "inclination_deg": 43.0051,
      "raan_deg": 33.5025,
      "arg_perigee_deg": 261.7093,
      "mean_anomaly_deg": 98.3575,
      "mean_motion_rev_day": 15.27548346
    },
    {
      "epoch": "2026-04-19T11:55:26.591520Z",
      "apogee_km": 484.24419015208787,
      "perigee_km": 481.80120563005676,
      "latitude_deg": 2.941530829112256e-05,
      "longitude_deg": -0.3442027163533832,
      "height_km": 483.0903046227153,
      "semi_major_axis_km": 6861.159697891072,
      "eccentricity": 0.00017803,
      "inclination_deg": 43.0056,
      "raan_deg": 26.1172,
      "arg_perigee_deg": 256.2631,
      "mean_anomaly_deg": 103.8023,
      "mean_motion_rev_day": 15.27588816
    },
    {
      "epoch": "2026-04-20T11:27:46.599552Z",
      "apogee_km": 484.3237848286817,
      "perigee_km": 481.6302486879822,
      "latitude_deg": -1.7338871820429057e-05,
      "longitude_deg": 0.06407103670229004,
      "height_km": 483.3400860565686,
      "semi_major_axis_km": 6861.114016758332,
      "eccentricity": 0.00019629,
      "inclination_deg": 43.0068,
      "raan_deg": 20.5756,
      "arg_perigee_deg": 244.2358,
      "mean_anomaly_deg": 115.8291,
      "mean_motion_rev_day": 15.27604072
    },
    {
      "epoch": "2026-04-21T11:00:06.707808Z",
      "apogee_km": 485.06455304719384,
      "perigee_km": 480.8425123769839,
      "latitude_deg": -8.528651612427348e-06,
      "longitude_deg": 0.4736846240576858,
      "height_km": 483.3579180159352,
      "semi_major_axis_km": 6861.090532712089,
      "eccentricity": 0.00030768,
      "inclination_deg": 43.0088,
      "raan_deg": 15.0357,
      "arg_perigee_deg": 252.7592,
      "mean_anomaly_deg": 107.2923,
      "mean_motion_rev_day": 15.27611915
    },
    {
      "epoch": "2026-04-23T00:39:52.040160Z",
      "apogee_km": 484.5639510047213,
      "perigee_km": 481.34362943142514,
      "latitude_deg": 3.4083990426310266e-05,
      "longitude_deg": 145.1276936544977,
      "height_km": 483.1801017420809,
      "semi_major_axis_km": 6861.090790218073,
      "eccentricity": 0.00023468,
      "inclination_deg": 43.0065,
      "raan_deg": 6.1753,
      "arg_perigee_deg": 253.8342,
      "mean_anomaly_deg": 106.2252,
      "mean_motion_rev_day": 15.27611829
    },
    {
      "epoch": "2026-04-24T17:27:56.623680Z",
      "apogee_km": 483.98390403654776,
      "perigee_km": 482.11491685834153,
      "latitude_deg": 4.4787691074321456e-05,
      "longitude_deg": -118.16444406013613,
      "height_km": 482.9183108094093,
      "semi_major_axis_km": 6861.186410447444,
      "eccentricity": 0.0001362,
      "inclination_deg": 43.0032,
      "raan_deg": 356.5779,
      "arg_perigee_deg": 264.3565,
      "mean_anomaly_deg": 95.7132,
      "mean_motion_rev_day": 15.27579895
    },
    {
      "epoch": "2026-04-25T09:09:30.176064Z",
      "apogee_km": 484.4451897674926,
      "perigee_km": 481.52646811606064,
      "latitude_deg": -2.6331489832292104e-05,
      "longitude_deg": 2.1064038608064095,
      "height_km": 483.0394915261588,
      "semi_major_axis_km": 6861.122828941776,
      "eccentricity": 0.0002127,
      "inclination_deg": 43.0042,
      "raan_deg": 352.8831,
      "arg_perigee_deg": 259.0986,
      "mean_anomaly_deg": 100.9626,
      "mean_motion_rev_day": 15.27601129
    },
    {
      "epoch": "2026-04-26T08:41:50.573760Z",
      "apogee_km": 484.16750261692414,
      "perigee_km": 481.8470636203738,
      "latitude_deg": -6.202303509724663e-06,
      "longitude_deg": 2.518022736745123,
      "height_km": 482.730354337929,
      "semi_major_axis_km": 6861.144283118649,
      "eccentricity": 0.0001691,
      "inclination_deg": 43.0039,
      "raan_deg": 347.3464,
      "arg_perigee_deg": 272.6828,
      "mean_anomaly_deg": 87.383,
      "mean_motion_rev_day": 15.27593964
    },
    {
      "epoch": "2026-04-27T08:14:12.126624Z",
      "apogee_km": 483.5623609586355,
      "perigee_km": 482.59218526041786,
      "latitude_deg": -2.6279518011038703e-05,
      "longitude_deg": 2.91827283627951,
      "height_km": 482.78996300072896,
      "semi_major_axis_km": 6861.214273109526,
      "eccentricity": 7.07e-05,
      "inclination_deg": 43.0068,
      "raan_deg": 341.8032,
      "arg_perigee_deg": 277.6017,
      "mean_anomaly_deg": 82.4754,
      "mean_motion_rev_day": 15.2757059
    },
    {
      "epoch": "2026-04-28T07:46:32.657376Z",
      "apogee_km": 485.1953983908552,
      "perigee_km": 480.8783477899051,
      "latitude_deg": 1.3317089988783375e-06,
      "longitude_deg": 3.328044373431289,
      "height_km": 482.9540723180387,
      "semi_major_axis_km": 6861.17387309038,
      "eccentricity": 0.0003146,
      "inclination_deg": 43.0077,
      "raan_deg": 336.2652,
      "arg_perigee_deg": 266.3231,
      "mean_anomaly_deg": 93.7261,
      "mean_motion_rev_day": 15.27584082
    },
    {
      "epoch": "2026-04-29T15:09:40.915584Z",
      "apogee_km": 483.4985502719255,
      "perigee_km": 482.5599427294046,
      "latitude_deg": -4.026129913987317e-06,
      "longitude_deg": -116.12883181072475,
      "height_km": 482.9294549655888,
      "semi_major_axis_km": 6861.166246500665,
      "eccentricity": 6.84e-05,
      "inclination_deg": 43.0021,
      "raan_deg": 328.8817,
      "arg_perigee_deg": 254.6868,
      "mean_anomaly_deg": 105.3908,
      "mean_motion_rev_day": 15.27586629
    },
    {
      "epoch": "2026-04-30T14:42:01.741824Z",
      "apogee_km": 483.3872748355234,
      "perigee_km": 482.6197876556971,
      "latitude_deg": 3.315865367332915e-05,
      "longitude_deg": -115.72278559032782,
      "height_km": 482.7852487608502,
      "semi_major_axis_km": 6861.14053124561,
      "eccentricity": 5.593e-05,
      "inclination_deg": 42.9999,
      "raan_deg": 323.3412,
      "arg_perigee_deg": 269.1373,
      "mean_anomaly_deg": 90.9415,
      "mean_motion_rev_day": 15.27595217
    },
    {
      "epoch": "2026-05-02T05:55:55.767072Z",
      "apogee_km": 483.6021442523688,
      "perigee_km": 482.4357477415497,
      "latitude_deg": -3.748549831835724e-05,
      "longitude_deg": 4.960544212312264,
      "height_km": 482.84091884316047,
      "semi_major_axis_km": 6861.155945996959,
      "eccentricity": 8.5e-05,
      "inclination_deg": 43.0028,
      "raan_deg": 314.1109,
      "arg_perigee_deg": 265.5312,
      "mean_anomaly_deg": 94.5442,
      "mean_motion_rev_day": 15.27590069
    },
    {
      "epoch": "2026-05-03T13:19:04.476288Z",
      "apogee_km": 483.73555366663095,
      "perigee_km": 482.3032186594555,
      "latitude_deg": 2.9331451384643324e-05,
      "longitude_deg": -114.49914334266248,
      "height_km": 482.9098109061562,
      "semi_major_axis_km": 6861.156386163043,
      "eccentricity": 0.00010438,
      "inclination_deg": 43.0027,
      "raan_deg": 306.7264,
      "arg_perigee_deg": 260.8603,
      "mean_anomaly_deg": 99.2131,
      "mean_motion_rev_day": 15.27589922
    },
    {
      "epoch": "2026-05-04T12:51:24.992352Z",
      "apogee_km": 483.7982776638173,
      "perigee_km": 482.3476806500239,
      "latitude_deg": -3.9454931291681114e-05,
      "longitude_deg": -114.09101724915814,
      "height_km": 482.8214867896592,
      "semi_major_axis_km": 6861.209979156921,
      "eccentricity": 0.00010571,
      "inclination_deg": 43.002,
      "raan_deg": 301.1868,
      "arg_perigee_deg": 272.223,
      "mean_anomaly_deg": 87.85,
      "mean_motion_rev_day": 15.27572024
    },
    {
      "epoch": "2026-05-05T12:23:45.718368Z",
      "apogee_km": 483.71507898283926,
      "perigee_km": 482.2701250886512,
      "latitude_deg": 1.9034454977686597e-05,
      "longitude_deg": -113.68303302769084,
      "height_km": 482.68796078921775,
      "semi_major_axis_km": 6861.129602035745,
      "eccentricity": 0.0001053,
      "inclination_deg": 43.0022,
      "raan_deg": 295.6478,
      "arg_perigee_deg": 276.4607,
      "mean_anomaly_deg": 83.6125,
      "mean_motion_rev_day": 15.27598867
    }
  ]
}